{"epoch":1784799577,"count":18318,"objects":[{"id":"41601","name":"SKYSAT C1","type":"PAYLOAD","l1":"1 41601U 16040C   26203.05666916  .00009079  00000-0  25428-3 0  9994","l2":"2 41601  96.9555 232.8956 0000845 190.2367 169.8861 15.36827669563223"},{"id":"41603","name":"LAPAN A3","type":"PAYLOAD","l1":"1 41603U 16040E   26203.95624550  .00003460  00000-0  10973-3 0  9990","l2":"2 41603  97.1510 198.9352 0008430 241.5774 118.4620 15.33312902560294"},{"id":"41727","name":"GAOFEN 3","type":"PAYLOAD","l1":"1 41727U 16049A   26203.95236381 -.00000171  00000-0 -38772-4 0  9993","l2":"2 41727  98.4028 211.1995 0001775  83.6144 276.5248 14.42218600523808"},{"id":"41771","name":"SKYSAT C4","type":"PAYLOAD","l1":"1 41771U 16058B   26203.85939802  .00019456  00000-0  35289-3 0  9992","l2":"2 41771  96.9177 224.1612 0003568 108.5272 251.6368 15.49627091550999"},{"id":"41772","name":"SKYSAT C5","type":"PAYLOAD","l1":"1 41772U 16058C   26203.90986042  .00007886  00000-0  24350-3 0  9998","l2":"2 41772  97.0455 242.9394 0003373 142.5328 217.6151 15.33795792549223"},{"id":"41773","name":"SKYSAT C2","type":"PAYLOAD","l1":"1 41773U 16058D   26203.48604645  .00012197  00000-0  28038-3 0  9996","l2":"2 41773  97.0165 224.2677 0000660 287.0697  73.0479 15.42800155550497"},{"id":"41774","name":"SKYSAT C3","type":"PAYLOAD","l1":"1 41774U 16058E   26203.06072799  .00024954  00000-0  38777-3 0  9995","l2":"2 41774  96.9001 232.5963 0002801 124.5445 235.6075 15.53929029551527"},{"id":"41785","name":"ALSAT 1B","type":"PAYLOAD","l1":"1 41785U 16059C   26203.98861493  .00000381  00000-0  67679-4 0  9998","l2":"2 41785  97.7766 211.2085 0010769 108.0939 252.1443 14.72298430525846"},{"id":"41787","name":"PATHFINDER 1","type":"PAYLOAD","l1":"1 41787U 16059E   26203.92890045  .00000551  00000-0  10430-3 0  9990","l2":"2 41787  97.8181 201.5946 0029970  92.2645 268.1993 14.67700187524959"},{"id":"41790","name":"SCATSAT 1","type":"PAYLOAD","l1":"1 41790U 16059H   26203.65072918  .00001035  00000-0  14199-3 0  9999","l2":"2 41790  98.1171 267.7798 0055661 132.9335 227.6566 14.79600805106837"},{"id":"41875","name":"GOKTURK-1A","type":"PAYLOAD","l1":"1 41875U 16073A   26203.95232910  .00000364  00000-0  80425-4 0  9992","l2":"2 41875  98.1200  98.0581 0001451  81.6332 278.5035 14.62797154514053"},{"id":"41877","name":"RESOURCESAT 2A","type":"PAYLOAD","l1":"1 41877U 16074A   26203.96583213  .00000124  00000-0  76843-4 0  9994","l2":"2 41877  98.7510 277.1751 0001899   9.7963 350.3251 14.21610172499387"},{"id":"41948","name":"CARTOSAT 2D","type":"PAYLOAD","l1":"1 41948U 17008A   26203.92222674  .00002627  00000-0  12753-3 0  9997","l2":"2 41948  97.4086 262.5561 0006512 117.7727 242.4169 15.19321626523009"},{"id":"42063","name":"SENTINEL 2B","type":"PAYLOAD","l1":"1 42063U 17013A   26203.94178336 -.00000102  00000-0 -22257-4 0  9998","l2":"2 42063  98.5676 278.2091 0001237  93.1168 267.0157 14.30816024489758"},{"id":"42767","name":"CARTOSAT 2E","type":"PAYLOAD","l1":"1 42767U 17036C   26203.94014302  .00003468  00000-0  16756-3 0  9998","l2":"2 42767  97.4257 263.1486 0004120 161.0221 199.1168 15.19294340503575"},{"id":"42920","name":"FORMOSAT-5","type":"PAYLOAD","l1":"1 42920U 17049A   26203.91367409  .00000060  00000-0  26362-4 0  9999","l2":"2 42920  98.2240 278.4276 0010873 339.3989  20.6766 14.50894111471859"},{"id":"42969","name":"SENTINEL 5P","type":"PAYLOAD","l1":"1 42969U 17064A   26203.30384108  .00000033  00000-0  36599-4 0  9990","l2":"2 42969  98.7929 145.1869 0001192  92.0923 268.0389 14.19524130454546"},{"id":"42987","name":"SKYSAT C11","type":"PAYLOAD","l1":"1 42987U 17068A   26203.68512260  .00031225  00000-0  39233-3 0  9991","l2":"2 42987  97.4384 354.1178 0001506 150.3189 209.8153 15.59645696488773"},{"id":"42988","name":"SKYSAT C10","type":"PAYLOAD","l1":"1 42988U 17068B   26203.82158753  .00011170  00000-0  32886-3 0  9995","l2":"2 42988  97.4541 341.0397 0001544 109.9336 250.2073 15.35228657487827"},{"id":"42989","name":"SKYSAT C9","type":"PAYLOAD","l1":"1 42989U 17068C   26203.34660832  .00013430  00000-0  31312-3 0  9993","l2":"2 42989  97.4462 341.8360 0008033  20.5738 339.5831 15.42337273488177"},{"id":"42990","name":"SKYSAT C8","type":"PAYLOAD","l1":"1 42990U 17068D   26203.60796554  .00010833  00000-0  29579-3 0  9991","l2":"2 42990  97.4558 340.7600 0001332 107.9214 252.2176 15.37595654487753"},{"id":"42991","name":"SKYSAT C7","type":"PAYLOAD","l1":"1 42991U 17068E   26203.60268653  .00010747  00000-0  29386-3 0  9996","l2":"2 42991  97.4569 341.7470 0004995 354.8309   5.2883 15.37543775487813"},{"id":"42992","name":"SKYSAT C6","type":"PAYLOAD","l1":"1 42992U 17068F   26203.82402321  .00009984  00000-0  30323-3 0  9997","l2":"2 42992  97.4608 341.7906 0004820  69.9095 290.2666 15.34265225487784"},{"id":"43111","name":"CARTOSAT 2F","type":"PAYLOAD","l1":"1 43111U 18004A   26203.97308558  .00003999  00000-0  19321-3 0  9990","l2":"2 43111  97.4769 263.2533 0002810 121.6584 238.4925 15.19213991472766"},{"id":"43259","name":"GAOFEN 1-02","type":"PAYLOAD","l1":"1 43259U 18031A   26203.94587852  .00000784  00000-0  12004-3 0  9996","l2":"2 43259  98.0507 266.3692 0001570 235.9364 124.1697 14.76479408447974"},{"id":"43260","name":"GAOFEN 1-03","type":"PAYLOAD","l1":"1 43260U 18031B   26203.92402387  .00000564  00000-0  88445-4 0  9994","l2":"2 43260  98.0498 266.2018 0001790 350.4326   9.6850 14.76470123447963"},{"id":"43262","name":"GAOFEN 1-04","type":"PAYLOAD","l1":"1 43262U 18031D   26203.96758647  .00000359  00000-0  58966-4 0  9990","l2":"2 43262  98.0508 266.4403 0000843  55.7716 304.3573 14.76444520447962"},{"id":"43437","name":"SENTINEL 3B","type":"PAYLOAD","l1":"1 43437U 18039A   26203.67541338  .00000064  00000-0  44504-4 0  9993","l2":"2 43437  98.6229 270.6951 0001299 118.4511 241.6800 14.26737900429185"},{"id":"43461","name":"GAOFEN-5","type":"PAYLOAD","l1":"1 43461U 18043A   26203.88962113  .00000254  00000-0  62329-4 0  9992","l2":"2 43461  98.4598 176.2313 0001622  14.7402 345.3845 14.60627011436907"},{"id":"43484","name":"GAOFEN 6","type":"PAYLOAD","l1":"1 43484U 18048A   26203.92268615  .00000049  00000-0  14566-4 0  9995","l2":"2 43484  98.0950 266.6424 0011918  60.1655 300.0738 14.76387873438661"}]}