OBJECT_NAME,OBJECT_ID,EPOCH,MEAN_MOTION,ECCENTRICITY,INCLINATION,RA_OF_ASC_NODE,ARG_OF_PERICENTER,MEAN_ANOMALY,EPHEMERIS_TYPE,CLASSIFICATION_TYPE,NORAD_CAT_ID,ELEMENT_SET_NO,REV_AT_EPOCH,BSTAR,MEAN_MOTION_DOT,MEAN_MOTION_DDOT
SKYSAT-C1,2016-040C,2026-07-22T01:21:36.215424,15.36827669,.00008445,96.9555,232.8956,190.2367,169.8861,0,U,41601,999,56322,.25428289E-3,.9079E-4,0
LAPAN-A3,2016-040E,2026-07-22T22:56:59.611200,15.33312902,.00084296,97.1510,198.9352,241.5774,118.4620,0,U,41603,999,56029,.10972994E-3,.346E-4,0
GAOFEN-3,2016-049A,2026-07-22T22:51:24.233184,14.42218600,.00017754,98.4028,211.1995,83.6144,276.5248,0,U,41727,999,52380,-.38771762E-4,-.171E-5,0
SKYSAT-C4,2016-058B,2026-07-22T20:37:31.988928,15.49627091,.00035678,96.9177,224.1612,108.5272,251.6368,0,U,41771,999,55099,.35289095E-3,.19456E-3,0
SKYSAT-C5,2016-058C,2026-07-22T21:50:11.940288,15.33795792,.00033726,97.0455,242.9394,142.5328,217.6151,0,U,41772,999,54922,.24350262E-3,.7886E-4,0
SKYSAT-C2,2016-058D,2026-07-22T11:39:54.413280,15.42800155,.00006601,97.0165,224.2677,287.0697,73.0479,0,U,41773,999,55049,.28038375E-3,.12197E-3,0
SKYSAT-C3,2016-058E,2026-07-22T01:27:26.898336,15.53929029,.00028007,96.9001,232.5963,124.5445,235.6075,0,U,41774,999,55152,.38776584E-3,.24954E-3,0
ALSAT-1B,2016-059C,2026-07-22T23:43:36.329952,14.72298430,.0010769,97.7766,211.2085,108.0939,252.1443,0,U,41785,999,52584,.67678757E-4,.381E-5,0
PATHFINDER 1,2016-059E,2026-07-22T22:17:36.998880,14.67700187,.00299697,97.8181,201.5946,92.2645,268.1993,0,U,41787,999,52495,.10429551E-3,.551E-5,0
SCATSAT 1,2016-059H,2026-07-22T15:37:03.001152,14.79600805,.00556611,98.1171,267.7798,132.9335,227.6566,0,U,41790,999,10683,.14198928E-3,.1035E-4,0
GOKTURK 1A,2016-073A,2026-07-22T22:51:21.234240,14.62797154,.00014513,98.1200,98.0581,81.6332,278.5035,0,U,41875,999,51405,.80425048E-4,.364E-5,0
RESOURCESAT-2A,2016-074A,2026-07-22T23:10:47.896032,14.21610172,.00018992,98.7510,277.1751,9.7963,350.3251,0,U,41877,999,49938,.76843362E-4,.124E-5,0
CARTOSAT-2D,2017-008A,2026-07-22T22:08:00.390336,15.19321626,.00065118,97.4086,262.5561,117.7727,242.4169,0,U,41948,999,52300,.12753454E-3,.2627E-4,0
SENTINEL-2B,2017-013A,2026-07-22T22:36:10.082304,14.30816024,.00012374,98.5676,278.2091,93.1168,267.0157,0,U,42063,999,48975,-.22256618E-4,-.102E-5,0
CARTOSAT-2E,2017-036C,2026-07-22T22:33:48.356928,15.19294340,.00041198,97.4257,263.1486,161.0221,199.1168,0,U,42767,999,50357,.1675574E-3,.3468E-4,0
FORMOSAT-5,2017-049A,2026-07-22T21:55:41.441376,14.50894111,.00108731,98.2240,278.4276,339.3989,20.6766,0,U,42920,999,47185,.26362246E-4,.6E-6,0
SENTINEL-5P,2017-064A,2026-07-22T07:17:31.869312,14.19524130,.00011922,98.7929,145.1869,92.0923,268.0389,0,U,42969,999,45454,.36598501E-4,.33E-6,0
SKYSAT-C11,2017-068A,2026-07-22T16:26:34.592640,15.59645696,.00015064,97.4384,354.1178,150.3189,209.8153,0,U,42987,999,48877,.39232622E-3,.31225E-3,0
SKYSAT-C10,2017-068B,2026-07-22T19:43:05.162592,15.35228657,.00015443,97.4541,341.0397,109.9336,250.2073,0,U,42988,999,48782,.32885609E-3,.1117E-3,0
SKYSAT-C9,2017-068C,2026-07-22T08:19:06.958848,15.42337273,.00080325,97.4462,341.8360,20.5738,339.5831,0,U,42989,999,48817,.31311584E-3,.1343E-3,0
SKYSAT-C8,2017-068D,2026-07-22T14:35:28.222656,15.37595654,.00013324,97.4558,340.7600,107.9214,252.2176,0,U,42990,999,48775,.29579227E-3,.10833E-3,0
SKYSAT-C7,2017-068E,2026-07-22T14:27:52.116192,15.37543775,.00049952,97.4569,341.7470,354.8309,5.2883,0,U,42991,999,48781,.29385819E-3,.10747E-3,0
SKYSAT-C6,2017-068F,2026-07-22T19:46:35.605344,15.34265225,.00048196,97.4608,341.7906,69.9095,290.2666,0,U,42992,999,48778,.30323338E-3,.9984E-4,0
CARTOSAT-2F,2018-004A,2026-07-22T23:21:14.594112,15.19213991,.00028105,97.4769,263.2533,121.6584,238.4925,0,U,43111,999,47276,.19321015E-3,.3999E-4,0
GAOFEN-1 02,2018-031A,2026-07-22T22:42:03.904128,14.76479408,.00015697,98.0507,266.3692,235.9364,124.1697,0,U,43259,999,44797,.12004499E-3,.784E-5,0
GAOFEN-1 03,2018-031B,2026-07-22T22:10:35.662368,14.76470123,.00017897,98.0498,266.2018,350.4326,9.6850,0,U,43260,999,44796,.88444953E-4,.564E-5,0
GAOFEN-1 04,2018-031D,2026-07-22T23:13:19.471008,14.76444520,.00008432,98.0508,266.4403,55.7716,304.3573,0,U,43262,999,44796,.58965855E-4,.359E-5,0
SENTINEL-3B,2018-039A,2026-07-22T16:12:35.716032,14.26737900,.00012991,98.6229,270.6951,118.4511,241.6800,0,U,43437,999,42918,.44504417E-4,.64E-6,0
GAOFEN-5 01,2018-043A,2026-07-22T21:21:03.265632,14.60627011,.00016217,98.4598,176.2313,14.7402,345.3845,0,U,43461,999,43690,.62328899E-4,.254E-5,0
GAOFEN-6,2018-048A,2026-07-22T22:08:40.083360,14.76387873,.00119175,98.0950,266.6424,60.1655,300.0738,0,U,43484,999,43866,.14566189E-4,.49E-6,0
